OBJECT_NAME,OBJECT_ID,EPOCH,MEAN_MOTION,ECCENTRICITY,INCLINATION,RA_OF_ASC_NODE,ARG_OF_PERICENTER,MEAN_ANOMALY,EPHEMERIS_TYPE,CLASSIFICATION_TYPE,NORAD_CAT_ID,ELEMENT_SET_NO,REV_AT_EPOCH,BSTAR,MEAN_MOTION_DOT,MEAN_MOTION_DDOT
SHUNTIAN,2019-093H,2026-05-09T12:33:32.757984,14.94964062,.0011665,97.7986,217.8892,186.4106,173.6967,0,U,44886,999,34640,.23024E-3,.246E-4,0
ELEKTRO-L 3,2019-095A,2026-05-09T11:39:22.247424,1.00272131,.0001348,0.1564,78.8147,327.8387,71.4519,0,U,44903,999,2332,0,-.88E-6,0
GONETS-M 14,2019-096A,2026-05-09T11:44:51.800352,12.42868488,.0012113,82.5201,108.6323,235.6343,124.3592,0,U,44905,999,28887,-.65358E-3,-.81E-6,0
GONETS-M 15,2019-096B,2026-05-09T12:27:15.997824,12.42869899,.0013903,82.5221,109.0693,260.7327,99.2180,0,U,44906,999,28884,.6607E-4,.19E-6,0
GONETS-M 16,2019-096C,2026-05-09T13:05:59.300736,12.42890196,.0010011,82.5167,108.0232,308.1112,51.9065,0,U,44907,999,28883,-.77675E-3,-.98E-6,0
RS-44 & BREEZE-KM R/B,2019-096E,2026-05-09T03:34:29.145216,12.79748164,.02165451,82.5246,5.6495,235.5204,122.5275,0,U,44909,999,29735,-.15663471E-4,.6E-7,0
JILIN-1 KUANFU 01,2020-003A,2026-05-09T11:14:54.530880,15.10506106,.0011361,97.5035,204.1842,78.8546,281.3961,0,U,45016,999,34948,.13584E-3,.2177E-4,0
XINGYUN-2 01,2020-028A,2026-05-09T13:15:13.798656,15.11644620,.0008806,97.4872,122.7265,349.7090,10.3959,0,U,45602,999,32900,.10056E-3,.1647E-4,0
XINGYUN-2 02,2020-028B,2026-05-09T12:34:42.530304,15.11380690,.0012567,97.5088,136.1997,50.7313,309.5030,0,U,45603,999,32899,.9459E-4,.1535E-4,0
HAIYANG-1D,2020-036A,2026-05-09T12:45:17.752608,14.34159775,.0001476,98.4539,72.0560,267.9130,92.1886,0,U,45721,999,30943,.34596E-4,.54E-6,0
M2 PATHFINDER,2020-037E,2026-05-09T11:22:23.468736,15.04507366,.0010398,97.8168,320.2722,285.5873,74.4204,0,U,45727,999,31967,.17096E-3,.2332E-4,0
GAOFEN DUOMO (GFDM),2020-042A,2026-05-09T12:29:30.854400,14.76826344,.0010493,97.7763,190.8089,190.7570,169.3418,0,U,45856,999,31530,.81378E-4,.522E-5,0
ZIYUAN 3-03 (ZY 3-03),2020-051A,2026-05-09T12:16:06.382272,15.21460224,.0007271,97.2849,198.4812,86.7719,273.4349,0,U,45939,999,32146,.20199E-3,.4475E-4,0
NEMO-HD,2020-061F,2026-05-09T12:11:15.343008,15.43819623,.0002207,97.1940,191.8695,126.5522,233.5930,0,U,46277,999,31601,.19437E-3,.872E-4,0
NAPA-1,2020-061BA,2026-05-09T11:45:49.629600,15.63381503,.0001778,97.2485,202.5412,142.3554,217.7830,0,U,46320,999,31568,.52411E-3,.48309E-3,0
JILIN-1 GAOFEN 3E,2020-065D,2026-05-09T12:17:03.782112,15.59504593,.0009706,97.2298,181.3475,302.1935,57.8380,0,U,46457,999,31372,.48769E-3,.38753E-3,0
JILIN-1 GAOFEN 3F,2020-065E,2026-05-09T11:27:01.586880,15.57342425,.0011139,97.2252,178.8135,289.6609,70.3444,0,U,46458,999,31367,.46934E-3,.34385E-3,0
JILIN-1 GAOFEN 3G,2020-065F,2026-05-09T11:16:57.015840,15.65152128,.0012024,97.2325,185.0480,183.5991,176.5184,0,U,46459,999,31387,.51479E-3,.5107E-3,0
JILIN-1 GAOFEN 3H,2020-065G,2026-05-09T11:59:19.792032,15.62744814,.0009169,97.2272,181.6043,128.7008,231.5072,0,U,46460,999,31383,.53483E-3,.48184E-3,0
JILIN-1 GAOFEN 3J,2020-065J,2026-05-09T11:13:48.196416,16.24845537,.0009064,97.2146,190.2762,251.6196,108.4111,0,U,46462,999,31433,.90499E-3,.2519926E-1,.23531E-5
HAIYANG-2C,2020-066A,2026-05-09T13:26:54.204576,13.83372109,.0010275,65.9980,311.4566,241.1731,118.8306,0,U,46469,999,28415,.20853E-3,.148E-5,0
HJ-2A,2020-067A,2026-05-09T11:18:04.610880,14.76563814,.0004401,97.8821,208.7552,48.3463,311.8124,0,U,46478,999,30254,.53927E-4,.326E-5,0
HJ-2B,2020-067B,2026-05-09T12:09:53.864352,14.76507958,.0001427,97.8885,209.7836,73.7552,286.3815,0,U,46479,999,30255,.76652E-4,.484E-5,0
GONETS-M 17,2020-068A,2026-05-09T11:45:27.071424,12.42872174,.0023145,82.5016,11.5771,117.8710,242.4718,0,U,46486,999,25435,.1101E-2,.163E-5,0
GONETS-M 18,2020-068B,2026-05-09T12:49:01.660800,12.42871137,.0020502,82.4969,10.6823,114.0187,246.3041,0,U,46487,999,25434,.83369E-3,.126E-5,0
GONETS-M 19,2020-068C,2026-05-09T12:14:28.128192,12.42891313,.0014007,82.4994,11.1406,127.5385,232.6969,0,U,46488,999,25444,.67633E-3,.104E-5,0
DEKART,2020-068H,2026-05-09T12:46:17.950080,15.36460509,.0010828,97.8762,136.0625,68.8330,291.4069,0,U,46493,999,30983,.26254E-3,.9267E-4,0
