SHUNTIAN                
1 44886U 19093H   26129.52329581  .00002460  00000+0  23024-3 0  9992
2 44886  97.7986 217.8892 0011665 186.4106 173.6967 14.94964062346401
ELEKTRO-L 3             
1 44903U 19095A   26129.48567416 -.00000088  00000+0  00000+0 0  9990
2 44903   0.1564  78.8147 0001348 327.8387  71.4519  1.00272131 23321
GONETS-M 14             
1 44905U 19096A   26129.48948843 -.00000081  00000+0 -65358-3 0  9995
2 44905  82.5201 108.6323 0012113 235.6343 124.3592 12.42868488288879
GONETS-M 15             
1 44906U 19096B   26129.51893516  .00000019  00000+0  66070-4 0  9998
2 44906  82.5221 109.0693 0013903 260.7327  99.2180 12.42869899288843
GONETS-M 16             
1 44907U 19096C   26129.54582524 -.00000098  00000+0 -77675-3 0  9997
2 44907  82.5167 108.0232 0010011 308.1112  51.9065 12.42890196288837
RS-44 & BREEZE-KM R/B   
1 44909U 19096E   26129.14894844  .00000006  00000+0 -15663-4 0  9994
2 44909  82.5246   5.6495 0216545 235.5204 122.5275 12.79748164297357
JILIN-1 KUANFU 01       
1 45016U 20003A   26129.46868670  .00002177  00000+0  13584-3 0  9996
2 45016  97.5035 204.1842 0011361  78.8546 281.3961 15.10506106349481
XINGYUN-2 01            
1 45602U 20028A   26129.55224304  .00001647  00000+0  10056-3 0  9996
2 45602  97.4872 122.7265 0008806 349.7090  10.3959 15.11644620329006
XINGYUN-2 02            
1 45603U 20028B   26129.52410336  .00001535  00000+0  94590-4 0  9998
2 45603  97.5088 136.1997 0012567  50.7313 309.5030 15.11380690328998
HAIYANG-1D              
1 45721U 20036A   26129.53145547  .00000054  00000+0  34596-4 0  9993
2 45721  98.4539  72.0560 0001476 267.9130  92.1886 14.34159775309434
M2 PATHFINDER           
1 45727U 20037E   26129.47388274  .00002332  00000+0  17096-3 0  9995
2 45727  97.8168 320.2722 0010398 285.5873  74.4204 15.04507366319677
GAOFEN DUOMO (GFDM)     
1 45856U 20042A   26129.52049600  .00000522  00000+0  81378-4 0  9991
2 45856  97.7763 190.8089 0010493 190.7570 169.3418 14.76826344315309
ZIYUAN 3-03 (ZY 3-03)   
1 45939U 20051A   26129.51118498  .00004475  00000+0  20199-3 0  9998
2 45939  97.2849 198.4812 0007271  86.7719 273.4349 15.21460224321464
NEMO-HD                 
1 46277U 20061F   26129.50781647  .00008720  00000+0  19437-3 0  9996
2 46277  97.1940 191.8695 0002207 126.5522 233.5930 15.43819623316019
NAPA-1                  
1 46320U 20061BA  26129.49015775  .00048309  00000+0  52411-3 0  9991
2 46320  97.2485 202.5412 0001778 142.3554 217.7830 15.63381503315681
JILIN-1 GAOFEN 3E       
1 46457U 20065D   26129.51184933  .00038753  00000+0  48769-3 0  9995
2 46457  97.2298 181.3475 0009706 302.1935  57.8380 15.59504593313722
JILIN-1 GAOFEN 3F       
1 46458U 20065E   26129.47710170  .00034385  00000+0  46934-3 0  9998
2 46458  97.2252 178.8135 0011139 289.6609  70.3444 15.57342425313674
JILIN-1 GAOFEN 3G       
1 46459U 20065F   26129.47010435  .00051070  00000+0  51479-3 0  9996
2 46459  97.2325 185.0480 0012024 183.5991 176.5184 15.65152128313879
JILIN-1 GAOFEN 3H       
1 46460U 20065G   26129.49953463  .00048184  00000+0  53483-3 0  9996
2 46460  97.2272 181.6043 0009169 128.7008 231.5072 15.62744814313835
JILIN-1 GAOFEN 3J       
1 46462U 20065J   26129.46791894  .02519926  23531-5  90499-3 0  9990
2 46462  97.2146 190.2762 0009064 251.6196 108.4111 16.24845537314334
HAIYANG-2C              
1 46469U 20066A   26129.56034959  .00000148  00000+0  20853-3 0  9997
2 46469  65.9980 311.4566 0010275 241.1731 118.8306 13.83372109284152
HJ-2A                   
1 46478U 20067A   26129.47088670  .00000326  00000+0  53927-4 0  9994
2 46478  97.8821 208.7552 0004401  48.3463 311.8124 14.76563814302541
HJ-2B                   
1 46479U 20067B   26129.50687343  .00000484  00000+0  76652-4 0  9996
2 46479  97.8885 209.7836 0001427  73.7552 286.3815 14.76507958302555
GONETS-M 17             
1 46486U 20068A   26129.48989666  .00000163  00000+0  11010-2 0  9994
2 46486  82.5016  11.5771 0023145 117.8710 242.4718 12.42872174254359
GONETS-M 18             
1 46487U 20068B   26129.53404700  .00000126  00000+0  83369-3 0  9998
2 46487  82.4969  10.6823 0020502 114.0187 246.3041 12.42871137254344
GONETS-M 19             
1 46488U 20068C   26129.51004778  .00000104  00000+0  67633-3 0  9990
2 46488  82.4994  11.1406 0014007 127.5385 232.6969 12.42891313254444
DEKART                  
1 46493U 20068H   26129.53215220  .00009267  00000+0  26254-3 0  9997
2 46493  97.8762 136.0625 0010828  68.8330 291.4069 15.36460509309830
